DELTA 2 R/B(1)          
1 20453U 90008B   26002.02672951  .00073093  00000+0  11036-2 0  9997
2 20453  35.6053 249.3558 0106329   2.3962 357.7263 15.47215793915773
COSMOS 2058             
1 20465U 90010A   26001.76301681  .00008076  00000+0  48549-3 0  9991
2 20465  82.4720 113.3370 0009982 200.5542 159.5288 15.10696117932139
SL-14 R/B               
1 20466U 90010B   26002.31793105  .00000952  00000+0  11253-3 0  9997
2 20466  82.5031 329.7200 0020412 154.4889 205.7338 14.83495776918640
SL-14 R/B               
1 20511U 90018B   26002.20431659  .00000957  00000+0  11743-3 0  9996
2 20511  82.5221 285.2390 0015331 314.8790  45.1178 14.82072876912738
HST                     
1 20580U 90037B   26001.71032804  .00011638  00000+0  40139-3 0  9996
2 20580  28.4657 136.5263 0002604  92.0873 268.0020 15.28338358763051
SL-16 R/B               
1 20625U 90046B   26002.31742683  .00000304  00000+0  18138-3 0  9998
2 20625  70.9994  77.3074 0012675  38.5086 321.6938 14.14999801839002
COSMOS 2084             
1 20663U 90055A   26001.96500962  .00005251  00000+0  37734-3 0  9991
2 20663  62.7889 203.0722 0028418 177.5920 182.5323 15.05158119926275
SL-6 R/B(2)             
1 20666U 90055D   26001.72516262  .00004908  00000+0  37458-3 0  9999
2 20666  62.7837 121.5029 0015165 322.0080  37.9949 15.03193129928125
SL-8 R/B                
1 20775U 90078B   26002.19724175  .00020730  00000+0  63611-3 0  9992
2 20775  82.9063 310.9883 0369342 236.9970 119.5256 14.86680264799410
SL-8 R/B                
1 21088U 91006B   26002.32983741  .00000058  00000+0  43449-4 0  9992
2 21088  82.9409 219.3970 0021625 218.9232 315.3257 13.77492877754936
OKEAN-3                 
1 21397U 91039A   26002.17129087  .00005796  00000+0  41393-3 0  9998
2 21397  82.5157  41.2677 0013892 190.5071 169.5868 15.04264390855033
COSMOS 2151             
1 21422U 91042A   26002.23983190  .00003584  00000+0  28751-3 0  9997
2 21422  82.4969 147.7471 0011196 285.5516  74.4471 14.99787854853232
SL-14 R/B               
1 21423U 91042B   26002.17591882  .00000793  00000+0  97331-4 0  9994
2 21423  82.4936 282.5616 0018569  98.7847 261.5471 14.81761619843227
ERS-1                   
1 21574U 91050A   26002.31317814  .00000721  00000+0  24525-3 0  9992
2 21574  98.7896  18.8821 0032650  40.6709 319.6908 14.39384744806184
ARIANE 40 R/B           
1 21610U 91050F   26002.10576729  .00000668  00000+0  21290-3 0  9998
2 21610  98.2136  56.7985 0001984 277.2314  82.8651 14.42833234809392
INTERCOSMOS 25          
1 21819U 91086A   26001.94544483  .00002363  00000+0  47068-3 0  9996
2 21819  82.6075 350.3531 1486028 260.8156  82.2438 12.11813819488606
SL-8 R/B                
1 21876U 92008B   26002.34092065  .00000155  00000+0  14430-3 0  9997
2 21876  82.9280 317.1236 0033957 321.9795 147.7735 13.75964014700293
SL-8 R/B                
1 21938U 92020B   26002.30432589  .00000248  00000+0  24117-3 0  9991
2 21938  82.9290 203.0461 0030036 121.8883  54.6687 13.75533666692002
USA 81                  
1 21949U 92023A   26001.94399879  .00000385  00000+0  13520-3 0  9997
2 21949  85.0090 169.9238 0001113 105.2201 254.9115 14.32336454 85234
COSMOS 2219             
1 22219U 92076A   26001.88528688  .00000415  00000+0  24247-3 0  9993
2 22219  71.0601 157.7200 0019951 299.0494  60.8630 14.14075353708930
SL-16 R/B               
1 22220U 92076B   26002.34184699 -.00000108  00000+0 -29726-4 0  9996
2 22220  71.0011 328.1331 0013796 206.1945 262.4547 14.16845588712431
COSMOS 2221             
1 22236U 92080A   26002.02028969  .00004469  00000+0  39669-3 0  9998
2 22236  82.5042 342.9115 0016069  59.9368 300.3445 14.95862035770821
SL-16 R/B               
1 22285U 92093B   26001.81461016 -.00000124  00000+0 -39399-4 0  9993
2 22285  71.0212 144.6554 0002906  14.0855 346.0349 14.15434718703695
COSMOS 2228             
1 22286U 92094A   26002.28072324  .00004350  00000+0  37614-3 0  9997
2 22286  82.5193 300.8800 0018407 159.9340 200.2610 14.96845187766126
SL-16 R/B               
1 22566U 93016B   26002.27243314  .00000002  00000+0  25346-4 0  9991
2 22566  71.0090 354.6779 0008072  55.9881 304.2007 14.15296062692777
COSMOS 2242             
1 22626U 93024A   26002.30169277  .00004274  00000+0  37586-3 0  9999
2 22626  82.5195 330.1896 0016723 162.4642 197.7161 14.96211526770467
SL-16 R/B               
1 22803U 93059B   26001.77738962  .00000003  00000+0  25124-4 0  9999
2 22803  70.9900 152.2322 0019096 307.3288  52.6095 14.17219538670051
ARIANE 40 R/B           
1 22830U 93061H   26002.21903771  .00000593  00000+0  23330-3 0  9994
2 22830  98.5046  72.3738 0011747 119.1156 241.1206 14.32817941684580
COSMOS 2278             
1 23087U 94023A   26002.25836429  .00000457  00000+0  26337-3 0  9996
2 23087  71.0542 314.0816 0007440 142.2987 217.8659 14.14353997635415
SL-16 R/B               
1 23088U 94023B   26002.26431718  .00000161  00000+0  10795-3 0  9993
2 23088  70.9975 210.3844 0002490 355.3569   4.7531 14.14998992636699
SL-16 R/B               
1 23343U 94074B   26002.09467233  .00000948  00000+0  13397-3 0  9999
2 23343  97.7183  35.5881 0007988  80.4884 299.6306 14.79317433677407
SL-16 R/B               
1 23405U 94077B   26002.27183676 -.00000153  00000+0 -53472-4 0  9996
2 23405  70.9826 132.2204 0005023 267.2828  92.7720 14.15550158606832
ARIANE 40+ R/B          
1 23561U 95021B   26002.23993223  .00000681  00000+0  23132-3 0  9995
2 23561  98.4624  74.5791 0006403 350.0525  77.1541 14.39714596609681
SL-16 R/B               
1 23705U 95058B   26002.20489457  .00000298  00000+0  17686-3 0  9992
2 23705  71.0223 319.8375 0014277 227.7711 132.2202 14.15483549558440
SL-16 R/B               
1 24298U 96051B   26002.31032015  .00000050  00000+0  53503-4 0  9995
2 24298  70.7599 315.7417 0019404 236.1124 123.8150 14.12399063512274
ORBVIEW 2 (SEASTAR)     
1 24883U 97037A   26002.06018192  .00000614  00000+0  22987-3 0  9999
2 24883  98.8470 164.6479 0001333 245.5726 114.5319 14.35435278498918
SL-16 R/B               
1 25400U 98043G   26002.28642387  .00000167  00000+0  88931-4 0  9991
2 25400  98.8152 315.2223 0009384 201.6055 158.4730 14.26031495429522
SL-16 R/B               
1 25407U 98045B   26002.31913622 -.00000004  00000+0  21835-4 0  9998
2 25407  71.0127 321.1481 0005618 141.9574 218.1947 14.16181860417706
ISS (ZARYA)             
1 25544U 98067A   26002.24250498  .00016008  00000+0  29760-3 0  9995
2 25544  51.6329  40.9506 0007531 330.5355  29.5208 15.49029434546037
CZ-4B R/B               
1 25732U 99025C   26002.13889613  .00000142  00000+0  89222-4 0  9996
2 25732  98.6739  47.9597 0037228 174.8904 251.0713 14.18249337378738
OKEAN-O                 
1 25860U 99039A   26001.73171713  .00001538  00000+0  20921-3 0  9993
2 25860  97.9575  62.2580 0001326 114.0652 246.0699 14.80202605424485
SL-16 R/B               
1 25861U 99039B   26002.11284373  .00001170  00000+0  15542-3 0  9999
2 25861  98.0096  61.2625 0016044 111.7689 248.5233 14.81621778427001
DELTA 2 R/B             
1 25876U 99041E   26002.03526858  .00003043  00000+0  52717-3 0  9992
2 25876  51.7593 207.4250 0504188 151.5869 211.3565 14.11476195353611
HELIOS 1B               
1 25977U 99064A   26002.18802315  .00004109  00000+0  46087-3 0  9997
2 25977  98.1755 262.4603 0000433  42.7796 317.3453 14.87382124675379
TERRA                   
1 25994U 99068A   26002.28213814  .00000995  00000+0  21218-3 0  9999
2 25994  97.9720  58.2098 0003115  52.7142  11.7947 14.60929862385381
SL-16 R/B               
1 26070U 00006B   26002.10534054  .00000286  00000+0  16944-3 0  9995
2 26070  71.0015 237.8378 0018797 281.2890  78.6121 14.15813922339131
TITAN 4B R/B            
1 26474U 00047B   26002.22634168  .00005907  00000+0  37529-3 0  9995
2 26474  67.9884 227.3128 0037565 119.6691 240.8208 15.08952833382888
ENVISAT                 
1 27386U 02009A   25365.95019499  .00000264  00000+0  99422-4 0  9995
2 27386  98.3626 316.2065 0001107  88.1807 295.1197 14.39007536249430
IDEFIX & ARIANE 42P R/B 
1 27422U 02021B   26002.21057277  .00000642  00000+0  26055-3 0  9995
2 27422  98.5808 301.6382 0012398  27.7863 332.3980 14.30968961234516
AQUA                    
1 27424U 02022A   25365.92641127  .00002078  00000+0  42628-3 0  9999
2 27424  98.4058 327.1196 0001962  94.7781 340.6230 14.61783896258835
CZ-4B R/B               
1 27432U 02024C   26002.15995791  .00000137  00000+0  93590-4 0  9992
2 27432  98.8968  55.8574 0049714 211.0920 217.3644 14.14533029219834
MIDORI II (ADEOS-II)    
1 27597U 02056A   26002.29784668  .00000705  00000+0  29528-3 0  9993
2 27597  98.7663 320.3650 0001196 137.3727 222.7548 14.29224744200817
H-2A R/B                
1 27601U 02056E   26001.92065781  .00000782  00000+0  28877-3 0  9997
2 27601  98.3091 324.8769 0070397   1.5480  63.3058 14.33698567204543
CZ-4B R/B               
1 28059U 03049C   26001.95228123  .00000843  00000+0  20463-3 0  9993
2 28059  98.6802 354.2814 0049306  75.6689 284.9974 14.54933366176897
CZ-2C R/B               
1 28222U 04012C   26002.18584747  .00059525  00000+0  80775-3 0  9992
2 28222  97.7388  61.5170 0016734 191.8406 168.2458 15.57289736193909
SL-16 R/B               
1 28353U 04021B   26002.26984882  .00000444  00000+0  25591-3 0  9991
2 28353  71.0013  11.8802 0004091 165.5988 194.5252 14.14586035113449
CZ-4B R/B               
1 28415U 04035C   26002.32705404  .00013740  00000+0  50120-3 0  9992
2 28415  97.3581  37.3989 0032305 201.3560 158.6333 15.27768099169777
CZ-2C R/B               
1 28480U 04046B   26002.22336049  .00000600  00000+0  23841-3 0  9991
2 28480  98.1997 281.3296 0139381 351.9299   7.9641 14.26957121 99026
ARIANE 5 R/B            
1 28499U 04049H   26002.00114913  .00002797  00000+0  31435-3 0  9991
2 28499  98.2526 168.0112 0083924 206.5199 153.1710 14.85079337135894
CZ-2D R/B               
1 28738U 05024B   26002.00819597  .00050271  00000+0  75957-3 0  9998
2 28738  97.3617  15.0034 0003038 263.8340  96.2568 15.54566837129408
